NORAD_CAT_ID,OBJECT_NAME,OBJECT_TYPE,EPOCH,MEAN_MOTION,ECCENTRICITY,INCLINATION,RA_OF_ASC_NODE,ARG_OF_PERICENTER,MEAN_ANOMALY,BSTAR,MEAN_MOTION_DOT,MEAN_MOTION_DDOT,TLE_LINE0,TLE_LINE1,TLE_LINE2,SEMIMAJOR_AXIS,PERIOD,APOGEE,PERIGEE,DECAYED
54162.0,STARLINK-5273,PAYLOAD,2023-06-11 09:19:50,15.08839121,9.97e-05,53.2152,193.6385,85.5125,274.5981,4.2031e-05,3.81e-06,0.0,0 STARLINK-5273,1 54162U 22141F   23162.38878264  .00000381  00000-0  42031-4 0  9994,2 54162  53.2152 193.6385 0000997  85.5125 274.5981 15.08839121 34409,6917.883,95.438,540.438,539.058,0.0
54162.0,STARLINK-5273,PAYLOAD,2023-06-11 20:27:33,15.0883614,0.0001004,53.2152,191.5571,83.557,276.5537,4.5524e-05,4.37e-06,0.0,0 STARLINK-5273,1 54162U 22141F   23162.85246533  .00000437  00000-0  45524-4 0  9996,2 54162  53.2152 191.5571 0001004  83.5570 276.5537 15.08836140 34479,6917.892,95.438,540.452,539.063,0.0
54162.0,STARLINK-5273,PAYLOAD,2023-06-12 10:46:01,15.08837696,9.84e-05,53.2153,188.8806,90.0183,270.0922,7.0099e-05,8.28e-06,0.0,0 STARLINK-5273,1 54162U 22141F   23163.44862454  .00000828  00000-0  70099-4 0  9997,2 54162  53.2153 188.8806 0000984  90.0183 270.0922 15.08837696 34563,6917.887,95.438,540.433,539.072,0.0
54162.0,STARLINK-5273,PAYLOAD,2023-06-12 18:42:57,15.08836381,9.86e-05,53.2153,187.3938,91.5781,268.5324,3.9436e-05,3.4e-06,0.0,0 STARLINK-5273,1 54162U 22141F   23163.77982670  .00000340  00000-0  39436-4 0  9995,2 54162  53.2153 187.3938 0000986  91.5781 268.5324 15.08836381 34619,6917.891,95.438,540.439,539.074,0.0
54162.0,STARLINK-5273,PAYLOAD,2023-06-13 01:04:29,15.08837238,9.86e-05,53.2153,186.2043,91.8037,268.3068,5.5847e-05,6.01e-06,0.0,0 STARLINK-5273,1 54162U 22141F   23164.04478633  .00000601  00000-0  55847-4 0  9999,2 54162  53.2153 186.2043 0000986  91.8037 268.3068 15.08837238 34650,6917.889,95.438,540.436,539.072,0.0
54162.0,STARLINK-5273,PAYLOAD,2023-06-13 18:33:44,15.08836804,0.0001006,53.2153,182.9331,89.2076,270.9031,1.4323e-05,-6e-07,0.0,0 STARLINK-5273,1 54162U 22141F   23164.77342886 -.00000060  00000-0  14323-4 0  9993,2 54162  53.2153 182.9331 0001006  89.2076 270.9031 15.08836804 34760,6917.89,95.438,540.451,539.059,0.0
54162.0,STARLINK-5273,PAYLOAD,2023-06-14 00:55:16,15.08837368,0.0001029,53.2153,181.743,89.2855,270.8255,3.2511e-05,2.3e-06,0.0,0 STARLINK-5273,1 54162U 22141F   23165.03838837  .00000230  00000-0  32511-4 0  9996,2 54162  53.2153 181.7430 0001029  89.2855 270.8255 15.08837368 34805,6917.888,95.438,540.465,539.042,0.0
54162.0,STARLINK-5273,PAYLOAD,2023-06-14 10:27:35,15.08838602,0.0001023,53.2154,179.9586,89.2214,270.8895,2.2373e-05,6.8e-07,0.0,0 STARLINK-5273,1 54162U 22141F   23165.43582855  .00000068  00000-0  22373-4 0  9990,2 54162  53.2154 179.9586 0001023  89.2214 270.8895 15.08838602 34868,6917.885,95.438,540.457,539.042,0.0
54162.0,STARLINK-5273,PAYLOAD,2023-06-14 18:24:31,15.08839904,0.0001016,53.2156,178.4719,88.5002,271.6106,4.3219e-05,4e-06,0.0,0 STARLINK-5273,1 54162U 22141F   23165.76702715  .00000400  00000-0  43219-4 0  9997,2 54162  53.2156 178.4719 0001016  88.5002 271.6106 15.08839904 34917,6917.881,95.438,540.449,539.043,0.0
54162.0,STARLINK-5273,PAYLOAD,2023-06-15 07:07:36,15.08841101,9.96e-05,53.2154,176.0929,87.3229,272.7877,6.9527e-05,8.19e-06,0.0,0 STARLINK-5273,1 54162U 22141F   23166.29694534  .00000819  00000-0  69527-4 0  9999,2 54162  53.2154 176.0929 0000996  87.3229 272.7877 15.08841101 34993,6917.877,95.437,540.431,539.053,0.0
54162.0,STARLINK-5273,PAYLOAD,2023-06-15 18:15:18,15.08840648,9.92e-05,53.2154,174.0115,86.0697,274.0408,5.923e-05,6.55e-06,0.0,0 STARLINK-5273,1 54162U 22141F   23166.76062572  .00000655  00000-0  59230-4 0  9990,2 54162  53.2154 174.0115 0000992  86.0697 274.0408 15.08840648 35068,6917.878,95.438,540.43,539.057,0.0
54162.0,STARLINK-5273,PAYLOAD,2023-06-16 06:58:23,15.08841711,9.97e-05,53.2154,171.6326,85.9956,274.115,6.5651e-05,7.57e-06,0.0,0 STARLINK-5273,1 54162U 22141F   23167.29054475  .00000757  00000-0  65651-4 0  9999,2 54162  53.2154 171.6326 0000997  85.9956 274.1150 15.08841711 35142,6917.875,95.437,540.43,539.05,0.0
54162.0,STARLINK-5273,PAYLOAD,2023-06-17 00:27:38,15.08836473,0.0001018,53.2151,168.3617,85.9586,274.1522,-2.809e-05,-7.35e-06,0.0,0 STARLINK-5273,1 54162U 22141F   23168.01919112 -.00000735  00000-0 -28090-4 0  9992,2 54162  53.2151 168.3617 0001018  85.9586 274.1522 15.08836473 35253,6917.891,95.438,540.46,539.052,0.0
54162.0,STARLINK-5273,PAYLOAD,2023-06-17 06:49:10,15.08836121,0.0001027,53.2151,167.1718,87.163,272.9479,-3.0141e-05,-7.67e-06,0.0,0 STARLINK-5273,1 54162U 22141F   23168.28415170 -.00000767  00000-0 -30141-4 0  9991,2 54162  53.2151 167.1718 0001027  87.1630 272.9479 15.08836121 35297,6917.892,95.438,540.468,539.047,0.0
54162.0,STARLINK-5273,PAYLOAD,2023-06-17 16:21:29,15.08836082,0.0001023,53.2154,165.3879,86.1508,273.9601,-1.1052e-05,-4.64e-06,0.0,0 STARLINK-5273,1 54162U 22141F   23168.68159194 -.00000464  00000-0 -11052-4 0  9990,2 54162  53.2154 165.3879 0001023  86.1508 273.9601 15.08836082 35358,6917.892,95.438,540.465,539.05,0.0
54162.0,STARLINK-5273,PAYLOAD,2023-06-18 06:39:57,15.08839169,0.0001014,53.2153,162.7115,85.3941,274.7167,2.5174e-05,1.13e-06,0.0,0 STARLINK-5273,1 54162U 22141F   23169.27774966  .00000113  00000-0  25174-4 0  9995,2 54162  53.2153 162.7115 0001014  85.3941 274.7167 15.08839169 35448,6917.883,95.438,540.449,539.046,0.0
54162.0,STARLINK-5273,PAYLOAD,2023-06-18 16:12:16,15.0883746,9.87e-05,53.2151,160.9273,83.2604,276.85,2.8961e-05,1.73e-06,0.0,0 STARLINK-5273,1 54162U 22141F   23169.67519110  .00000173  00000-0  28961-4 0  9990,2 54162  53.2151 160.9273 0000987  83.2604 276.8500 15.08837460 35505,6917.888,95.438,540.436,539.07,0.0
54162.0,STARLINK-5273,PAYLOAD,2023-06-19 06:30:44,15.08837266,9.75e-05,53.2155,158.2517,87.8227,272.2877,7.5787e-05,9.19e-06,0.0,0 STARLINK-5273,1 54162U 22141F   23170.27135119  .00000919  00000-0  75787-4 0  9997,2 54162  53.2155 158.2517 0000975  87.8227 272.2877 15.08837266 35598,6917.889,95.438,540.428,539.079,0.0
54162.0,STARLINK-5273,PAYLOAD,2023-06-19 16:03:03,15.08836533,9.63e-05,53.2153,156.4676,87.704,272.4063,5.5841e-05,6.01e-06,0.0,0 STARLINK-5273,1 54162U 22141F   23170.66879303  .00000601  00000-0  55841-4 0  9997,2 54162  53.2153 156.4676 0000963  87.7040 272.4063 15.08836533 35653,6917.891,95.438,540.422,539.09,0.0
54162.0,STARLINK-5273,PAYLOAD,2023-06-19 23:59:59,15.08836354,0.0001024,53.2157,154.9812,92.1458,267.9652,1.5966e-05,-3.4e-07,0.0,0 STARLINK-5273,1 54162U 22141F   23170.99999519 -.00000034  00000-0  15966-4 0  9990,2 54162  53.2157 154.9812 0001024  92.1458 267.9652 15.08836354 35704,6917.892,95.438,540.465,539.048,0.0
54162.0,STARLINK-5273,PAYLOAD,2023-06-21 07:47:41,15.08844396,0.0001088,53.2159,149.0342,96.2819,263.8297,6.6217e-05,7.66e-06,0.0,0 STARLINK-5273,1 54162U 22141F   23172.32478896  .00000766  00000-0  66217-4 0  9995,2 54162  53.2159 149.0342 0001088  96.2819 263.8297 15.08844396 35902,6917.867,95.437,540.485,538.979,0.0
54162.0,STARLINK-5273,PAYLOAD,2023-06-21 22:06:10,15.08833268,0.0001122,53.2159,146.3561,93.0932,267.0188,9.736e-06,-1.33e-06,0.0,0 STARLINK-5273,1 54162U 22141F   23172.92095824 -.00000133  00000-0  97360-5 0  9990,2 54162  53.2159 146.3561 0001122  93.0932 267.0188 15.08833268 35995,6917.901,95.438,540.542,538.99,0.0
54162.0,STARLINK-5273,PAYLOAD,2023-06-22 15:35:24,15.08841399,0.0001219,53.2162,143.085,92.7433,267.3698,2.6252e-05,1.3e-06,0.0,0 STARLINK-5273,1 54162U 22141F   23173.64959472  .00000130  00000-0  26252-4 0  9995,2 54162  53.2162 143.0850 0001219  92.7433 267.3698 15.08841399 36100,6917.876,95.437,540.584,538.898,0.0
54162.0,STARLINK-5273,PAYLOAD,2023-06-23 07:29:15,15.08849762,0.0001181,53.2159,140.1111,91.1714,268.9414,8.8711e-05,1.125e-05,0.0,0 STARLINK-5273,1 54162U 22141F   23174.31198531  .00001125  00000-0  88711-4 0  9994,2 54162  53.2159 140.1111 0001181  91.1714 268.9414 15.08849762 36203,6917.851,95.437,540.533,538.899,0.0
54162.0,STARLINK-5273,PAYLOAD,2023-06-24 00:58:31,15.0882989,0.0001164,53.2157,136.8397,91.7148,268.3977,-1.4399e-05,-5.17e-06,0.0,0 STARLINK-5273,1 54162U 22141F   23175.04064269 -.00000517  00000-0 -14399-4 0  9992,2 54162  53.2157 136.8397 0001164  91.7148 268.3977 15.08829890 36317,6917.911,95.438,540.582,538.971,0.0
54162.0,STARLINK-5273,PAYLOAD,2023-06-25 04:00:04,15.08843488,0.0001228,53.2153,131.7867,89.3633,270.75,1.3846e-05,-6.7e-07,0.0,0 STARLINK-5273,1 54162U 22141F   23176.16671658 -.00000067  00000-0  13846-4 0  9997,2 54162  53.2153 131.7867 0001228  89.3633 270.7500 15.08843488 36488,6917.87,95.437,540.584,538.885,0.0
54162.0,STARLINK-5273,PAYLOAD,2023-06-26 07:01:37,15.08844492,0.0001323,53.216,126.7316,91.5147,268.5997,0.00012799,1.75e-05,0.0,0 STARLINK-5273,1 54162U 22141F   23177.29279402  .00001750  00000-0  12799-3 0  9997,2 54162  53.2160 126.7316 0001323  91.5147 268.5997 15.08844492 36650,6917.867,95.437,540.647,538.816,0.0
54162.0,STARLINK-5273,PAYLOAD,2023-06-26 13:23:10,15.08836435,0.0001232,53.2152,125.5413,87.4474,272.6659,5.8716e-05,6.47e-06,0.0,0 STARLINK-5273,1 54162U 22141F   23177.55776105  .00000647  00000-0  58716-4 0  9992,2 54162  53.2152 125.5413 0001232  87.4474 272.6659 15.08836435 36695,6917.891,95.438,540.609,538.904,0.0
54162.0,STARLINK-5273,PAYLOAD,2023-06-28 03:32:25,15.08841927,0.0001203,53.2164,118.4055,94.6971,265.4158,1.9676e-05,2.5e-07,0.0,0 STARLINK-5273,1 54162U 22141F   23179.14752293  .00000025  00000-0  19676-4 0  9993,2 54162  53.2164 118.4055 0001203  94.6971 265.4158 15.08841927 36934,6917.874,95.437,540.572,538.907,0.0
54162.0,STARLINK-5273,PAYLOAD,2023-06-29 01:47:50,15.08834057,0.0001046,53.2158,114.241,93.9534,266.1578,5.0585e-05,5.17e-06,0.0,0 STARLINK-5273,1 54162U 22141F   23180.07488883  .00000517  00000-0  50585-4 0  9998,2 54162  53.2158 114.2410 0001046  93.9534 266.1578 15.08834057 37074,6917.899,95.438,540.487,539.04,0.0
